STARLINK-11152 [DTC]    
1 60194U 24124M   26086.26236797  .00004659  00000+0  43279-4 0  9999
2 60194  53.1582  74.6590 0001213  99.1489 260.9666 15.69719376100486
STARLINK-11193 [DTC]    
1 60195U 24124N   26086.38480308  .00011606  00000+0  10045-3 0  9996
2 60195  53.1581  73.9948 0001474  60.3660 299.7504 15.69726817 99313
STARLINK-31869          
1 60196U 24124P   26086.56456296  .00000390  00000+0  25284-4 0  9996
2 60196  53.1597 239.3819 0000938  88.4225 271.6883 15.30192954 97031
STARLINK-32023          
1 60197U 24124Q   26086.59938644 -.00000922  00000+0 -19027-4 0  9993
2 60197  53.1610 239.5982 0001176  94.5439 265.5697 15.30192460 97038
STARLINK-32046          
1 60198U 24124R   26086.57617378 -.00000126  00000+0  78611-5 0  9990
2 60198  53.1597 239.4519 0001259 103.7740 256.3401 15.30187486 98267
STARLINK-32049          
1 60199U 24124S   26086.58988607  .00001805  00000+0  73062-4 0  9996
2 60199  53.1600 239.5377 0001070  89.1276 270.9848 15.30197700 98265
STARLINK-32002          
1 60200U 24124T   26086.57722807 -.00000536  00000+0 -59883-5 0  9994
2 60200  53.1598 239.4561 0000969  98.4070 261.7040 15.30190057 97033
STARLINK-32020          
1 60201U 24124U   26086.41915355  .00000496  00000+0  28848-4 0  9999
2 60201  53.1612 239.8910 0000784  76.3101 283.7987 15.30196159 97019
STARLINK-32041          
1 60202U 24124V   26086.57406534 -.00000342  00000+0  56762-6 0  9990
2 60202  53.1609 239.4379 0001184  83.5053 276.6083 15.30183718 98232
2024-125A               
1 60203U 24125A   26086.55382911  .00049846  00000+0  67299-3 0  9997
2 60203  97.2415 303.2640 0012467 149.1894 211.0096 15.57541031 96898
2024-125C               
1 60205U 24125C   26086.59780011  .00507373  10915-3  11946-2 0  9997
2 60205  97.2227 310.1987 0004123 140.1592 219.9988 15.96849895 97371
R5-S4                   
1 60206U 24125D   26086.57152989  .00014797  00000+0  36257-3 0  9999
2 60206  97.2508 298.3810 0017769 162.2757 197.9113 15.40672812 96550
R5-S2                   
1 60207U 24125E   26086.56312237  .00017322  00000+0  40249-3 0  9996
2 60207  97.2482 298.9079 0017273 161.8964 198.2902 15.42250210 96590
MESAT1                  
1 60209U 24125G   26086.59643626  .00044759  00000+0  65817-3 0  9992
2 60209  97.2429 302.6509 0012487 154.3431 205.8446 15.55251124 96858
TIANHUI 5C              
1 60211U 24126A   26086.50753023  .00000471  00000+0  57793-4 0  9998
2 60211  97.8213  95.2228 0001556  89.2185 270.9209 14.87584648 93747
TIANHUI 5D              
1 60212U 24126B   26086.50753131  .00000460  00000+0  56554-4 0  9991
2 60212  97.8212  95.2301 0002109  93.6549 266.4908 14.87584524 93757
TURKSAT 6A              
1 60233U 24127A   26086.55481881  .00000128  00000+0  00000+0 0  9991
2 60233   0.0317 203.8015 0001558 121.0615 101.8398  1.00271869  6191
GRBBETA                 
1 60237U 24128C   26086.56907441  .00003381  00000+0  23950-3 0  9999
2 60237  61.9894 142.4809 0049756 117.5367 243.0795 15.05973419 93978
ISTSAT-1                
1 60238U 24128D   26086.59356242  .00005656  00000+0  34591-3 0  9990
2 60238  61.9876 134.3970 0047282 115.1053 245.4960 15.10508673 94137
OOV-CUBE (TUBSAT-30)    
1 60240U 24128F   26086.53401983  .00001991  00000+0  16123-3 0  9999
2 60240  61.9946 150.2080 0053029 116.0173 244.6393 15.02364614 93840
CURIUM ONE              
1 60242U 24128H   26086.55428842  .00006575  00000+0  39150-3 0  9994
2 60242  61.9784 134.6159 0049410 113.7715 246.8573 15.11184114 94110
ROBUSTA-3A (MEDITERRAN*)
1 60243U 24128J   26086.47483658  .00006842  00000+0  41527-3 0  9990
2 60243  61.9860 136.9289 0050085 111.4992 249.1454 15.10411996 94076
CATSAT                  
1 60246U 24125J   26086.57586058  .00047951  00000+0  82814-3 0  9999
2 60246  97.2189 298.4874 0027669 123.9055 236.4834 15.50412958 94714
GAOFEN-11 05            
1 60249U 24130A   26086.61006375  .00005885  00000+0  25071-3 0  9994
2 60249  97.4030 166.0264 0005977  25.4921 334.6609 15.23330321 73040
STARLINK-32138          
1 60255U 24131A   26085.97754413  .00000285  00000+0  21754-4 0  9997
2 60255  53.1610 332.2618 0001247  90.5472 269.5671 15.30197976 94661
STARLINK-32212          
1 60256U 24131B   26086.38209719  .00002303  00000+0  89876-4 0  9990
2 60256  53.1614 330.5290 0001377  86.6007 273.5151 15.30199310 94423
STARLINK-32166          
1 60257U 24131C   26086.06185431 -.00000369  00000+0 -34391-6 0  9996
2 60257  53.1620 332.0738 0001297 104.1907 255.9238 15.30193488 94375
STARLINK-32200          
1 60258U 24131D   26086.37999108  .00000857  00000+0  41083-4 0  9999
2 60258  53.1616 330.5063 0001361  75.4754 284.6398 15.30191539 94424
STARLINK-32207          
1 60259U 24131E   26086.37787615  .00000180  00000+0  18212-4 0  9995
2 60259  53.1597 330.5067 0000893  88.9079 271.2024 15.30196079 94427
STARLINK-32125          
1 60260U 24131F   26086.39253551  .00000153  00000+0  17306-4 0  9999
2 60260  53.1623 329.8789 0001526  91.7060 268.4116 15.30195552 94433
STARLINK-32160          
1 60261U 24131G   26086.38313673  .00014211  00000+0  49057-3 0  9998
2 60261  53.1607 330.5214 0001122  98.2796 261.8333 15.30230551 94479
STARLINK-32163          
1 60262U 24131H   26085.89322970  .00003005  00000+0  11359-3 0  9997
2 60262  53.1601 332.4446 0001220  86.6418 273.4722 15.30184644 94352
STARLINK-32148          
1 60263U 24131J   26086.09867241  .00022098  00000+0  75548-3 0  9999
2 60263  53.1578 331.5951 0001465  80.8696 279.2470 15.30222215 94432
STARLINK-32121          
1 60264U 24131K   26085.97121494  .00014825  00000+0  51161-3 0  9993
2 60264  53.1583 332.2236 0001270  79.9573 280.1571 15.30202497 94411
STARLINK-32120          
1 60265U 24131L   26086.37933171  .00005692  00000+0  19900-3 0  9999
2 60265  53.1597 330.4980 0000927 113.8490 246.2609 15.31040408 94471
STARLINK-32205          
1 60266U 24131M   26086.37576874  .00000086  00000+0  15045-4 0  9992
2 60266  53.1617 330.4899 0001061 103.5473 256.5646 15.30192034 94423
STARLINK-32158          
1 60267U 24131N   26086.40836301  .00001895  00000+0  76097-4 0  9994
2 60267  53.1620 329.9702 0001510  75.2581 284.8587 15.30201203 94335
STARLINK-32167          
1 60268U 24131P   26086.39358602  .00022944  00000+0  78376-3 0  9995
2 60268  53.1610 329.8947 0001080  77.6235 282.4886 15.30226228 94429
STARLINK-32144          
1 60269U 24131Q   26086.29145250  .00000851  00000+0  40845-4 0  9992
2 60269  53.1603 330.6619 0001350  75.3173 284.7977 15.30198078 94465
STARLINK-32211          
1 60270U 24131R   26086.38526668 -.00000141  00000+0  73594-5 0  9991
2 60270  53.1616 330.5502 0001240  94.6300 265.4842 15.30194768 94420
STARLINK-32164          
1 60271U 24131S   26086.38949011  .00007987  00000+0  28189-3 0  9995
2 60271  53.1628 330.5602 0001719 112.2610 247.8573 15.30154945 94324
STARLINK-32128          
1 60272U 24131T   26086.07862933  .00027365  00000+0  93259-3 0  9991
2 60272  53.1624 331.4703 0001462  96.2082 263.9085 15.30201504 94389
STARLINK-32206          
1 60273U 24131U   26086.37893189 -.00000115  00000+0  82387-5 0  9999
2 60273  53.1599 330.5095 0001216 100.4590 259.6548 15.30196508 94422
STARLINK-32155          
1 60274U 24131V   26086.11133857  .00006254  00000+0  22311-3 0  9999
2 60274  53.1583 331.6736 0001294  98.0225 262.0923 15.30201244 94286
STARLINK-32152          
1 60275U 24131W   26086.40203249  .00001036  00000+0  47129-4 0  9993
2 60275  53.1624 329.9297 0001500  93.3320 266.7852 15.30193562 94330
STARLINK-32154          
1 60276U 24131X   26086.39570138  .00001180  00000+0  51970-4 0  9995
2 60276  53.1621 329.8886 0001186  98.8308 261.2827 15.30194836 94435
STARLINK-32135          
1 60277U 24131Y   26085.95538128  .00005682  00000+0  20383-3 0  9994
2 60277  53.1609 332.1160 0001296  91.7829 268.3320 15.30199191 94363
STARLINK-32156          
1 60278U 24132A   26086.40312024  .00001026  00000+0  46802-4 0  9995
2 60278  53.1628 330.0661 0001577 100.2570 259.8609 15.30185191 95494
STARLINK-32010          
1 60279U 24132B   26086.37050572 -.00001706  00000+0 -45512-4 0  9993
2 60279  53.1576 330.5784 0001019 108.0736 252.0376 15.30189601 94269
STARLINK-32118          
1 60280U 24132C   26086.39678152  .00003441  00000+0  12833-3 0  9992
2 60280  53.1612 330.0235 0001330 102.0403 258.0747 15.30179753 94275
STARLINK-32038          
1 60281U 24132D   26086.39888877 -.00000383  00000+0 -80269-6 0  9995
2 60281  53.1622 330.0387 0001456  99.5496 260.5670 15.30190553 94270
STARLINK-32113          
1 60282U 24132E   26086.39994391  .00001609  00000+0  66436-4 0  9993
2 60282  53.1613 330.0466 0001346  83.9861 276.1293 15.30195138 94278
STARLINK-32037          
1 60283U 24132F   26086.09341749  .00005224  00000+0  18834-3 0  9999
2 60283  53.1597 331.6876 0000964  73.2803 286.8304 15.30204269 94227
STARLINK-32123          
1 60284U 24132G   26086.61960904 -.00001163  00000+0 -27147-4 0  9996
2 60284  53.1602 316.5130 0001317  90.5117 269.6035 15.30191849 94480
STARLINK-32122          
1 60285U 24132H   26085.95646076  .00022142  00000+0  75736-3 0  9998
2 60285  53.1607 332.2566 0001387  89.2276 270.8884 15.30204584 94209
STARLINK-31656          
1 60286U 24132J   26086.39044222  .00001954  00000+0  78121-4 0  9993
2 60286  53.1620 329.9909 0001178  92.8063 267.3073 15.30181623 94277
STARLINK-32114          
1 60287U 24132K   26086.37472875  .00001914  00000+0  76734-4 0  9995
2 60287  53.1596 330.5949 0001315  84.2719 275.8432 15.30200680 94265
STARLINK-31997          
1 60288U 24132L   26086.38095224  .00001203  00000+0  52733-4 0  9990
2 60288  53.1608 329.9258 0001169  99.2036 260.9097 15.30190347 94271
STARLINK-32000          
1 60289U 24132M   26085.96595152  .00000545  00000+0  30514-4 0  9990
2 60289  53.1610 332.3183 0000964 107.8393 252.2713 15.30198093 94202
